{
  "type": "FeatureCollection",
  "features": [
    {
      "type": "Feature",
      "properties": {
        "norad_id": 34079,
        "name": "IRIDIUM 33 DEB",
        "group": "iridium-33-debris",
        "lat": 49.473082989522396,
        "lon": 11.94683796244617,
        "alt_km": 611.0898596886873,
        "timestamp": "2025-12-14T20:40:32.157505+00:00",
        "meta_object_name": "IRIDIUM 33 DEB",
        "meta_object_id": "1997-051CN",
        "meta_epoch": "2025-12-14T07:33:52.163712",
        "meta_mean_motion": 14.83583848,
        "meta_eccentricity": 0.00054033,
        "meta_inclination": 86.378,
        "meta_ra_of_asc_node": 7.946,
        "meta_arg_of_pericenter": 3.2861,
        "meta_mean_anomaly": 10.5471,
        "meta_ephemeris_type": 0,
        "meta_classification_type": "U",
        "meta_norad_cat_id": 34079,
        "meta_element_set_no": 999,
        "meta_rev_at_epoch": 89001,
        "meta_bstar": 0.0017176306,
        "meta_mean_motion_dot": 0.00014194,
        "meta_mean_motion_ddot": 0,
        "tle_line1": "1 34079U 97051CN  25348.31518708  .00014194  00000+0  17176-2 0  9992",
        "tle_line2": "2 34079  86.3780   7.9460 0005403   3.2861  10.5471 14.83583848890013"
      },
      "geometry": {
        "type": "Point",
        "coordinates": [
          11.94683796244617,
          49.473082989522396
        ]
      }
    },
    {
      "type": "Feature",
      "properties": {
        "norad_id": 34088,
        "name": "IRIDIUM 33 DEB",
        "group": "iridium-33-debris",
        "lat": -21.228024627298915,
        "lon": -148.84357599096688,
        "alt_km": 595.1263723052616,
        "timestamp": "2025-12-14T20:40:32.157516+00:00",
        "meta_object_name": "IRIDIUM 33 DEB",
        "meta_object_id": "1997-051CX",
        "meta_epoch": "2025-12-14T03:56:23.951904",
        "meta_mean_motion": 14.91481864,
        "meta_eccentricity": 0.00059432,
        "meta_inclination": 86.3853,
        "meta_ra_of_asc_node": 30.0697,
        "meta_arg_of_pericenter": 171.4078,
        "meta_mean_anomaly": 248.0297,
        "meta_ephemeris_type": 0,
        "meta_classification_type": "U",
        "meta_norad_cat_id": 34088,
        "meta_element_set_no": 999,
        "meta_rev_at_epoch": 88763,
        "meta_bstar": 0.0024702744,
        "meta_mean_motion_dot": 0.00024801,
        "meta_mean_motion_ddot": 0,
        "tle_line1": "1 34088U 97051CX  25348.16416611  .00024801  00000+0  24703-2 0  9995",
        "tle_line2": "2 34088  86.3853  30.0697 0005943 171.4078 248.0297 14.91481864887632"
      },
      "geometry": {
        "type": "Point",
        "coordinates": [
          -148.84357599096688,
          -21.228024627298915
        ]
      }
    },
    {
      "type": "Feature",
      "properties": {
        "norad_id": 34091,
        "name": "IRIDIUM 33 DEB",
        "group": "iridium-33-debris",
        "lat": -45.76182990712578,
        "lon": 62.093855239910084,
        "alt_km": 609.18777168614,
        "timestamp": "2025-12-14T20:40:32.157526+00:00",
        "meta_object_name": "IRIDIUM 33 DEB",
        "meta_object_id": "1997-051DA",
        "meta_epoch": "2025-12-14T04:40:35.399424",
        "meta_mean_motion": 14.81980164,
        "meta_eccentricity": 0.00334508,
        "meta_inclination": 86.3414,
        "meta_ra_of_asc_node": 66.1668,
        "meta_arg_of_pericenter": 288.0463,
        "meta_mean_anomaly": 71.7116,
        "meta_ephemeris_type": 0,
        "meta_classification_type": "U",
        "meta_norad_cat_id": 34091,
        "meta_element_set_no": 999,
        "meta_rev_at_epoch": 87888,
        "meta_bstar": 0.0049590842,
        "meta_mean_motion_dot": 0.00039901,
        "meta_mean_motion_ddot": 0,
        "tle_line1": "1 34091U 97051DA  25348.19485416  .00039901  00000+0  49591-2 0  9990",
        "tle_line2": "2 34091  86.3414  66.1668 0033450 288.0463  71.7116 14.81980164878888"
      },
      "geometry": {
        "type": "Point",
        "coordinates": [
          62.093855239910084,
          -45.76182990712578
        ]
      }
    },
    {
      "type": "Feature",
      "properties": {
        "norad_id": 34097,
        "name": "IRIDIUM 33 DEB",
        "group": "iridium-33-debris",
        "lat": -22.355648814405285,
        "lon": -177.96211503564484,
        "alt_km": 833.6197469431463,
        "timestamp": "2025-12-14T20:40:32.157536+00:00",
        "meta_object_name": "IRIDIUM 33 DEB",
        "meta_object_id": "1997-051DG",
        "meta_epoch": "2025-12-14T01:19:19.199712",
        "meta_mean_motion": 14.34791546,
        "meta_eccentricity": 0.00824166,
        "meta_inclination": 86.201,
        "meta_ra_of_asc_node": 0.8277,
        "meta_arg_of_pericenter": 357.9129,
        "meta_mean_anomaly": 2.171,
        "meta_ephemeris_type": 0,
        "meta_classification_type": "U",
        "meta_norad_cat_id": 34097,
        "meta_element_set_no": 999,
        "meta_rev_at_epoch": 87138,
        "meta_bstar": 0.0016859905,
        "meta_mean_motion_dot": 4.986e-05,
        "meta_mean_motion_ddot": 0,
        "tle_line1": "1 34097U 97051DG  25348.05508333  .00004986  00000+0  16860-2 0  9993",
        "tle_line2": "2 34097  86.2010   0.8277 0082416 357.9129   2.1710 14.34791546871385"
      },
      "geometry": {
        "type": "Point",
        "coordinates": [
          -177.96211503564484,
          -22.355648814405285
        ]
      }
    },
    {
      "type": "Feature",
      "properties": {
        "norad_id": 34145,
        "name": "IRIDIUM 33 DEB",
        "group": "iridium-33-debris",
        "lat": 9.948394811987644,
        "lon": 150.91649949223196,
        "alt_km": 747.4465511313974,
        "timestamp": "2025-12-14T20:40:32.157547+00:00",
        "meta_object_name": "IRIDIUM 33 DEB",
        "meta_object_id": "1997-051DY",
        "meta_epoch": "2025-12-14T03:14:44.008512",
        "meta_mean_motion": 14.42302595,
        "meta_eccentricity": 0.00557463,
        "meta_inclination": 86.2114,
        "meta_ra_of_asc_node": 331.9058,
        "meta_arg_of_pericenter": 89.3765,
        "meta_mean_anomaly": 271.3823,
        "meta_ephemeris_type": 0,
        "meta_classification_type": "U",
        "meta_norad_cat_id": 34145,
        "meta_element_set_no": 999,
        "meta_rev_at_epoch": 87658,
        "meta_bstar": 0.0012897788,
        "meta_mean_motion_dot": 4.356e-05,
        "meta_mean_motion_ddot": 0,
        "tle_line1": "1 34145U 97051DY  25348.13523158  .00004356  00000+0  12898-2 0  9996",
        "tle_line2": "2 34145  86.2114 331.9058 0055746  89.3765 271.3823 14.42302595876580"
      },
      "geometry": {
        "type": "Point",
        "coordinates": [
          150.91649949223196,
          9.948394811987644
        ]
      }
    },
    {
      "type": "Feature",
      "properties": {
        "norad_id": 34146,
        "name": "IRIDIUM 33 DEB",
        "group": "iridium-33-debris",
        "lat": -38.51696410083906,
        "lon": 171.82886493517233,
        "alt_km": 717.0586786242538,
        "timestamp": "2025-12-14T20:40:32.157557+00:00",
        "meta_object_name": "IRIDIUM 33 DEB",
        "meta_object_id": "1997-051DZ",
        "meta_epoch": "2025-12-14T06:29:42.870912",
        "meta_mean_motion": 14.49064089,
        "meta_eccentricity": 0.00256244,
        "meta_inclination": 86.2839,
        "meta_ra_of_asc_node": 349.1246,
        "meta_arg_of_pericenter": 216.196,
        "meta_mean_anomaly": 162.0252,
        "meta_ephemeris_type": 0,
        "meta_classification_type": "U",
        "meta_norad_cat_id": 34146,
        "meta_element_set_no": 999,
        "meta_rev_at_epoch": 88129,
        "meta_bstar": 0.0010997924,
        "meta_mean_motion_dot": 4.212e-05,
        "meta_mean_motion_ddot": 0,
        "tle_line1": "1 34146U 97051DZ  25348.27063508  .00004212  00000+0  10998-2 0  9990",
        "tle_line2": "2 34146  86.2839 349.1246 0025624 216.1960 162.0252 14.49064089881290"
      },
      "geometry": {
        "type": "Point",
        "coordinates": [
          171.82886493517233,
          -38.51696410083906
        ]
      }
    },
    {
      "type": "Feature",
      "properties": {
        "norad_id": 34159,
        "name": "IRIDIUM 33 DEB",
        "group": "iridium-33-debris",
        "lat": -32.53420350483467,
        "lon": -130.33023031577386,
        "alt_km": 762.6419736400994,
        "timestamp": "2025-12-14T20:40:32.157567+00:00",
        "meta_object_name": "IRIDIUM 33 DEB",
        "meta_object_id": "1997-051EN",
        "meta_epoch": "2025-12-14T04:39:46.508256",
        "meta_mean_motion": 14.38499893,
        "meta_eccentricity": 0.00259263,
        "meta_inclination": 86.351,
        "meta_ra_of_asc_node": 47.6211,
        "meta_arg_of_pericenter": 282.6185,
        "meta_mean_anomaly": 77.2114,
        "meta_ephemeris_type": 0,
        "meta_classification_type": "U",
        "meta_norad_cat_id": 34159,
        "meta_element_set_no": 999,
        "meta_rev_at_epoch": 87980,
        "meta_bstar": 0.00053043656,
        "meta_mean_motion_dot": 1.645e-05,
        "meta_mean_motion_ddot": 0,
        "tle_line1": "1 34159U 97051EN  25348.19428829  .00001645  00000+0  53044-3 0  9993",
        "tle_line2": "2 34159  86.3510  47.6211 0025926 282.6185  77.2114 14.38499893879806"
      },
      "geometry": {
        "type": "Point",
        "coordinates": [
          -130.33023031577386,
          -32.53420350483467
        ]
      }
    }
  ]
}